{"type":"FeatureCollection","name":"country-labels","attribution":"Made with Natural Earth","features":[{"type":"Feature","id":1159320625,"properties":{"name":"Fiji","name:zh":"斐济","name:en":"Fiji","wikidata":"Q712","country_code":"FJ","population":889953,"class":"country","rank":6,"minzoom":3,"label_x":177.975427,"label_y":-17.826099},"geometry":{"type":"Point","coordinates":[177.975427,-17.826099]}},{"type":"Feature","id":1159321337,"properties":{"name":"Tanzania","name:zh":"坦桑尼亚","name:en":"Tanzania","wikidata":"Q924","country_code":"TZ","population":58005463,"class":"country","rank":3,"minzoom":3,"label_x":34.959183,"label_y":-6.051866},"geometry":{"type":"Point","coordinates":[34.959183,-6.051866]}},{"type":"Feature","id":1159321223,"properties":{"name":"W. Sahara","name:zh":"西撒哈拉","name:en":"Western Sahara","wikidata":"Q6250","country_code":"EH","population":603253,"class":"country","rank":7,"minzoom":6,"label_x":-12.630304,"label_y":23.967592},"geometry":{"type":"Point","coordinates":[-12.630304,23.967592]}},{"type":"Feature","id":1159320467,"properties":{"name":"Canada","name:zh":"加拿大","name:en":"Canada","wikidata":"Q16","country_code":"CA","population":37589262,"class":"country","rank":2,"minzoom":1.7,"label_x":-101.9107,"label_y":60.324287},"geometry":{"type":"Point","coordinates":[-101.9107,60.324287]}},{"type":"Feature","id":1159321369,"properties":{"name":"United States of America","name:zh":"美国","name:en":"United States of America","wikidata":"Q30","country_code":"US","population":328239523,"class":"country","rank":2,"minzoom":1.7,"label_x":-97.482602,"label_y":39.538479},"geometry":{"type":"Point","coordinates":[-97.482602,39.538479]}},{"type":"Feature","id":1159320967,"properties":{"name":"Kazakhstan","name:zh":"哈萨克斯坦","name:en":"Kazakhstan","wikidata":"Q232","country_code":"KZ","population":18513930,"class":"country","rank":3,"minzoom":2.7,"label_x":68.685548,"label_y":49.054149},"geometry":{"type":"Point","coordinates":[68.685548,49.054149]}},{"type":"Feature","id":1159321405,"properties":{"name":"Uzbekistan","name:zh":"乌兹别克斯坦","name:en":"Uzbekistan","wikidata":"Q265","country_code":"UZ","population":33580650,"class":"country","rank":3,"minzoom":3,"label_x":64.005429,"label_y":41.693603},"geometry":{"type":"Point","coordinates":[64.005429,41.693603]}},{"type":"Feature","id":1159321173,"properties":{"name":"Papua New Guinea","name:zh":"巴布亚新几内亚","name:en":"Papua New Guinea","wikidata":"Q691","country_code":"PG","population":8776109,"class":"country","rank":2,"minzoom":2.5,"label_x":143.910216,"label_y":-5.695285},"geometry":{"type":"Point","coordinates":[143.910216,-5.695285]}},{"type":"Feature","id":1159320845,"properties":{"name":"Indonesia","name:zh":"印度尼西亚","name:en":"Indonesia","wikidata":"Q252","country_code":"ID","population":270625568,"class":"country","rank":2,"minzoom":1.7,"label_x":101.892949,"label_y":-0.954404},"geometry":{"type":"Point","coordinates":[101.892949,-0.954404]}},{"type":"Feature","id":1159320331,"properties":{"name":"Argentina","name:zh":"阿根廷","name:en":"Argentina","wikidata":"Q414","country_code":"AR","population":44938712,"class":"country","rank":2,"minzoom":2,"label_x":-64.173331,"label_y":-33.501159},"geometry":{"type":"Point","coordinates":[-64.173331,-33.501159]}},{"type":"Feature","id":1159320493,"properties":{"name":"Chile","name:zh":"智利","name:en":"Chile","wikidata":"Q298","country_code":"CL","population":18952038,"class":"country","rank":2,"minzoom":1.7,"label_x":-72.318871,"label_y":-38.151771},"geometry":{"type":"Point","coordinates":[-72.318871,-38.151771]}},{"type":"Feature","id":1159320513,"properties":{"name":"Dem. Rep. Congo","name:zh":"刚果民主共和国","name:en":"Democratic Republic of the Congo","wikidata":"Q974","country_code":"CD","population":86790567,"class":"country","rank":2,"minzoom":2,"label_x":23.458829,"label_y":-1.858167},"geometry":{"type":"Point","coordinates":[23.458829,-1.858167]}},{"type":"Feature","id":1159321261,"properties":{"name":"Somalia","name:zh":"索马里","name:en":"Somalia","wikidata":"Q1045","country_code":"SO","population":10192317.3,"class":"country","rank":6,"minzoom":4,"label_x":45.19238,"label_y":3.568925},"geometry":{"type":"Point","coordinates":[45.19238,3.568925]}},{"type":"Feature","id":1159320971,"properties":{"name":"Kenya","name:zh":"肯尼亚","name:en":"Kenya","wikidata":"Q114","country_code":"KE","population":52573973,"class":"country","rank":2,"minzoom":1.7,"label_x":37.907632,"label_y":0.549043},"geometry":{"type":"Point","coordinates":[37.907632,0.549043]}},{"type":"Feature","id":1159321229,"properties":{"name":"Sudan","name:zh":"苏丹","name:en":"Sudan","wikidata":"Q1049","country_code":"SD","population":42813238,"class":"country","rank":3,"minzoom":2.5,"label_x":29.260657,"label_y":16.330746},"geometry":{"type":"Point","coordinates":[29.260657,16.330746]}},{"type":"Feature","id":1159321301,"properties":{"name":"Chad","name:zh":"乍得","name:en":"Chad","wikidata":"Q657","country_code":"TD","population":15946876,"class":"country","rank":3,"minzoom":3,"label_x":18.645041,"label_y":15.142959},"geometry":{"type":"Point","coordinates":[18.645041,15.142959]}},{"type":"Feature","id":1159320839,"properties":{"name":"Haiti","name:zh":"海地","name:en":"Haiti","wikidata":"Q790","country_code":"HT","population":11263077,"class":"country","rank":5,"minzoom":4,"label_x":-72.224051,"label_y":19.263784},"geometry":{"type":"Point","coordinates":[-72.224051,19.263784]}},{"type":"Feature","id":1159320563,"properties":{"name":"Dominican Rep.","name:zh":"多米尼加","name:en":"Dominican Republic","wikidata":"Q786","country_code":"DO","population":10738958,"class":"country","rank":5,"minzoom":4.5,"label_x":-70.653998,"label_y":19.104137},"geometry":{"type":"Point","coordinates":[-70.653998,19.104137]}},{"type":"Feature","id":1159321201,"properties":{"name":"Russia","name:zh":"俄罗斯","name:en":"Russia","wikidata":"Q159","country_code":"RU","population":144373535,"class":"country","rank":2,"minzoom":1.7,"label_x":44.686469,"label_y":58.249357},"geometry":{"type":"Point","coordinates":[44.686469,58.249357]}},{"type":"Feature","id":1159320415,"properties":{"name":"Bahamas","name:zh":"巴哈马","name:en":"The Bahamas","wikidata":"Q778","country_code":"BS","population":389482,"class":"country","rank":4,"minzoom":4,"label_x":-77.146688,"label_y":26.401789},"geometry":{"type":"Point","coordinates":[-77.146688,26.401789]}},{"type":"Feature","id":1159320711,"properties":{"name":"Falkland Is.","name:zh":"福克兰群岛","name:en":"Falkland Islands","wikidata":"Q9648","country_code":"FK","population":3398,"class":"country","rank":5,"minzoom":4.5,"label_x":-58.738602,"label_y":-51.608913},"geometry":{"type":"Point","coordinates":[-58.738602,-51.608913]}},{"type":"Feature","id":1159321109,"properties":{"name":"Norway","name:zh":"挪威","name:en":"Norway","wikidata":"Q20","country_code":"NO","population":5347896,"class":"country","rank":3,"minzoom":3,"label_x":9.679975,"label_y":61.357092},"geometry":{"type":"Point","coordinates":[9.679975,61.357092]}},{"type":"Feature","id":1159320551,"properties":{"name":"Greenland","name:zh":"格陵兰","name:en":"Greenland","wikidata":"Q223","country_code":"GL","population":56225,"class":"country","rank":3,"minzoom":1.7,"label_x":-39.335251,"label_y":74.319387},"geometry":{"type":"Point","coordinates":[-39.335251,74.319387]}},{"type":"Feature","id":1159320631,"properties":{"name":"Fr. S. Antarctic Lands","name:zh":"法属南部和南极领地","name:en":"French Southern and Antarctic Lands","wikidata":"Q129003","country_code":"TF","population":140,"class":"country","rank":6,"minzoom":4,"label_x":69.122136,"label_y":-49.303721},"geometry":{"type":"Point","coordinates":[69.122136,-49.303721]}},{"type":"Feature","id":1159321313,"properties":{"name":"Timor-Leste","name:zh":"东帝汶","name:en":"East Timor","wikidata":"Q574","country_code":"TL","population":1293119,"class":"country","rank":5,"minzoom":4,"label_x":125.854679,"label_y":-8.803705},"geometry":{"type":"Point","coordinates":[125.854679,-8.803705]}},{"type":"Feature","id":1159321431,"properties":{"name":"South Africa","name:zh":"南非","name:en":"South Africa","wikidata":"Q258","country_code":"ZA","population":58558270,"class":"country","rank":2,"minzoom":1.7,"label_x":23.665734,"label_y":-29.708776},"geometry":{"type":"Point","coordinates":[23.665734,-29.708776]}},{"type":"Feature","id":1159321027,"properties":{"name":"Lesotho","name:zh":"莱索托","name:en":"Lesotho","wikidata":"Q1013","country_code":"LS","population":2125268,"class":"country","rank":6,"minzoom":4,"label_x":28.246639,"label_y":-29.480158},"geometry":{"type":"Point","coordinates":[28.246639,-29.480158]}},{"type":"Feature","id":1159321055,"properties":{"name":"Mexico","name:zh":"墨西哥","name:en":"Mexico","wikidata":"Q96","country_code":"MX","population":127575529,"class":"country","rank":2,"minzoom":2,"label_x":-102.289448,"label_y":23.919988},"geometry":{"type":"Point","coordinates":[-102.289448,23.919988]}},{"type":"Feature","id":1159321353,"properties":{"name":"Uruguay","name:zh":"乌拉圭","name:en":"Uruguay","wikidata":"Q77","country_code":"UY","population":3461734,"class":"country","rank":4,"minzoom":3,"label_x":-55.966942,"label_y":-32.961127},"geometry":{"type":"Point","coordinates":[-55.966942,-32.961127]}},{"type":"Feature","id":1159320441,"properties":{"name":"Brazil","name:zh":"巴西","name:en":"Brazil","wikidata":"Q155","country_code":"BR","population":211049527,"class":"country","rank":2,"minzoom":1.7,"label_x":-49.55945,"label_y":-12.098687},"geometry":{"type":"Point","coordinates":[-49.55945,-12.098687]}},{"type":"Feature","id":1159320439,"properties":{"name":"Bolivia","name:zh":"玻利维亚","name:en":"Bolivia","wikidata":"Q750","country_code":"BO","population":11513100,"class":"country","rank":3,"minzoom":3,"label_x":-64.593433,"label_y":-16.666015},"geometry":{"type":"Point","coordinates":[-64.593433,-16.666015]}},{"type":"Feature","id":1159321163,"properties":{"name":"Peru","name:zh":"秘鲁","name:en":"Peru","wikidata":"Q419","country_code":"PE","population":32510453,"class":"country","rank":2,"minzoom":2,"label_x":-72.90016,"label_y":-12.976679},"geometry":{"type":"Point","coordinates":[-72.90016,-12.976679]}},{"type":"Feature","id":1159320517,"properties":{"name":"Colombia","name:zh":"哥伦比亚","name:en":"Colombia","wikidata":"Q739","country_code":"CO","population":50339443,"class":"country","rank":2,"minzoom":3,"label_x":-73.174347,"label_y":3.373111},"geometry":{"type":"Point","coordinates":[-73.174347,3.373111]}},{"type":"Feature","id":1159321161,"properties":{"name":"Panama","name:zh":"巴拿马","name:en":"Panama","wikidata":"Q804","country_code":"PA","population":4246439,"class":"country","rank":4,"minzoom":4,"label_x":-80.352106,"label_y":8.72198},"geometry":{"type":"Point","coordinates":[-80.352106,8.72198]}},{"type":"Feature","id":1159320525,"properties":{"name":"Costa Rica","name:zh":"哥斯达黎加","name:en":"Costa Rica","wikidata":"Q800","country_code":"CR","population":5047561,"class":"country","rank":5,"minzoom":2.5,"label_x":-84.077922,"label_y":10.0651},"geometry":{"type":"Point","coordinates":[-84.077922,10.0651]}},{"type":"Feature","id":1159321091,"properties":{"name":"Nicaragua","name:zh":"尼加拉瓜","name:en":"Nicaragua","wikidata":"Q811","country_code":"NI","population":6545502,"class":"country","rank":5,"minzoom":4,"label_x":-85.069347,"label_y":12.670697},"geometry":{"type":"Point","coordinates":[-85.069347,12.670697]}},{"type":"Feature","id":1159320827,"properties":{"name":"Honduras","name:zh":"洪都拉斯","name:en":"Honduras","wikidata":"Q783","country_code":"HN","population":9746117,"class":"country","rank":5,"minzoom":4.5,"label_x":-86.887604,"label_y":14.794801},"geometry":{"type":"Point","coordinates":[-86.887604,14.794801]}},{"type":"Feature","id":1159321253,"properties":{"name":"El Salvador","name:zh":"萨尔瓦多","name:en":"El Salvador","wikidata":"Q792","country_code":"SV","population":6453553,"class":"country","rank":6,"minzoom":5,"label_x":-88.890124,"label_y":13.685371},"geometry":{"type":"Point","coordinates":[-88.890124,13.685371]}},{"type":"Feature","id":1159320815,"properties":{"name":"Guatemala","name:zh":"危地马拉","name:en":"Guatemala","wikidata":"Q774","country_code":"GT","population":16604026,"class":"country","rank":3,"minzoom":3,"label_x":-90.497134,"label_y":14.982133},"geometry":{"type":"Point","coordinates":[-90.497134,14.982133]}},{"type":"Feature","id":1159320431,"properties":{"name":"Belize","name:zh":"伯利兹","name:en":"Belize","wikidata":"Q242","country_code":"BZ","population":390353,"class":"country","rank":6,"minzoom":5,"label_x":-88.712962,"label_y":17.202068},"geometry":{"type":"Point","coordinates":[-88.712962,17.202068]}},{"type":"Feature","id":1159321411,"properties":{"name":"Venezuela","name:zh":"委内瑞拉","name:en":"Venezuela","wikidata":"Q717","country_code":"VE","population":28515829,"class":"country","rank":3,"minzoom":2.5,"label_x":-64.599381,"label_y":7.182476},"geometry":{"type":"Point","coordinates":[-64.599381,7.182476]}},{"type":"Feature","id":1159320817,"properties":{"name":"Guyana","name:zh":"圭亚那","name:en":"Guyana","wikidata":"Q734","country_code":"GY","population":782766,"class":"country","rank":4,"minzoom":4,"label_x":-58.942643,"label_y":5.124317},"geometry":{"type":"Point","coordinates":[-58.942643,5.124317]}},{"type":"Feature","id":1159321281,"properties":{"name":"Suriname","name:zh":"苏里南","name:en":"Suriname","wikidata":"Q730","country_code":"SR","population":581363,"class":"country","rank":4,"minzoom":4,"label_x":-55.91094,"label_y":4.143987},"geometry":{"type":"Point","coordinates":[-55.91094,4.143987]}},{"type":"Feature","id":1159320637,"properties":{"name":"France","name:zh":"法国","name:en":"France","wikidata":"Q142","country_code":"FR","population":67059887,"class":"country","rank":2,"minzoom":1.7,"label_x":2.552275,"label_y":46.696113},"geometry":{"type":"Point","coordinates":[2.552275,46.696113]}},{"type":"Feature","id":1159320567,"properties":{"name":"Ecuador","name:zh":"厄瓜多尔","name:en":"Ecuador","wikidata":"Q736","country_code":"EC","population":17373662,"class":"country","rank":3,"minzoom":3,"label_x":-78.188375,"label_y":-1.259076},"geometry":{"type":"Point","coordinates":[-78.188375,-1.259076]}},{"type":"Feature","id":1159321363,"properties":{"name":"Puerto Rico","name:zh":"波多黎各","name:en":"Puerto Rico","wikidata":"Q1183","country_code":"PR","population":3193694,"class":"country","rank":5,"minzoom":3,"label_x":-66.481065,"label_y":18.234668},"geometry":{"type":"Point","coordinates":[-66.481065,18.234668]}},{"type":"Feature","id":1159320931,"properties":{"name":"Jamaica","name:zh":"牙买加","name:en":"Jamaica","wikidata":"Q766","country_code":"JM","population":2948279,"class":"country","rank":4,"minzoom":4,"label_x":-77.318767,"label_y":18.137124},"geometry":{"type":"Point","coordinates":[-77.318767,18.137124]}},{"type":"Feature","id":1159320527,"properties":{"name":"Cuba","name:zh":"古巴","name:en":"Cuba","wikidata":"Q241","country_code":"CU","population":11333483,"class":"country","rank":3,"minzoom":2.7,"label_x":-77.975855,"label_y":21.334024},"geometry":{"type":"Point","coordinates":[-77.975855,21.334024]}},{"type":"Feature","id":1159321441,"properties":{"name":"Zimbabwe","name:zh":"津巴布韦","name:en":"Zimbabwe","wikidata":"Q954","country_code":"ZW","population":14645468,"class":"country","rank":3,"minzoom":2.5,"label_x":29.925444,"label_y":-18.91164},"geometry":{"type":"Point","coordinates":[29.925444,-18.91164]}},{"type":"Feature","id":1159320461,"properties":{"name":"Botswana","name:zh":"博茨瓦纳","name:en":"Botswana","wikidata":"Q963","country_code":"BW","population":2303697,"class":"country","rank":4,"minzoom":4,"label_x":24.179216,"label_y":-22.102634},"geometry":{"type":"Point","coordinates":[24.179216,-22.102634]}},{"type":"Feature","id":1159321085,"properties":{"name":"Namibia","name:zh":"纳米比亚","name:en":"Namibia","wikidata":"Q1030","country_code":"NA","population":2494530,"class":"country","rank":3,"minzoom":3,"label_x":17.108166,"label_y":-20.575298},"geometry":{"type":"Point","coordinates":[17.108166,-20.575298]}},{"type":"Feature","id":1159321243,"properties":{"name":"Senegal","name:zh":"塞内加尔","name:en":"Senegal","wikidata":"Q1041","country_code":"SN","population":16296364,"class":"country","rank":3,"minzoom":2.7,"label_x":-14.778586,"label_y":15.138125},"geometry":{"type":"Point","coordinates":[-14.778586,15.138125]}},{"type":"Feature","id":1159321063,"properties":{"name":"Mali","name:zh":"马里","name:en":"Mali","wikidata":"Q912","country_code":"ML","population":19658031,"class":"country","rank":3,"minzoom":3,"label_x":-2.038455,"label_y":18.692713},"geometry":{"type":"Point","coordinates":[-2.038455,18.692713]}},{"type":"Feature","id":1159321075,"properties":{"name":"Mauritania","name:zh":"毛里塔尼亚","name:en":"Mauritania","wikidata":"Q1025","country_code":"MR","population":4525696,"class":"country","rank":3,"minzoom":3,"label_x":-9.740299,"label_y":19.587062},"geometry":{"type":"Point","coordinates":[-9.740299,19.587062]}},{"type":"Feature","id":1159320399,"properties":{"name":"Benin","name:zh":"贝宁","name:en":"Benin","wikidata":"Q962","country_code":"BJ","population":11801151,"class":"country","rank":5,"minzoom":4,"label_x":2.352018,"label_y":10.324775},"geometry":{"type":"Point","coordinates":[2.352018,10.324775]}},{"type":"Feature","id":1159321087,"properties":{"name":"Niger","name:zh":"尼日尔","name:en":"Niger","wikidata":"Q1032","country_code":"NE","population":23310715,"class":"country","rank":3,"minzoom":3,"label_x":9.504356,"label_y":17.446195},"geometry":{"type":"Point","coordinates":[9.504356,17.446195]}},{"type":"Feature","id":1159321089,"properties":{"name":"Nigeria","name:zh":"尼日利亚","name:en":"Nigeria","wikidata":"Q1033","country_code":"NG","population":200963599,"class":"country","rank":2,"minzoom":1.7,"label_x":7.50322,"label_y":9.439799},"geometry":{"type":"Point","coordinates":[7.50322,9.439799]}},{"type":"Feature","id":1159320509,"properties":{"name":"Cameroon","name:zh":"喀麦隆","name:en":"Cameroon","wikidata":"Q1009","country_code":"CM","population":25876380,"class":"country","rank":3,"minzoom":3,"label_x":12.473488,"label_y":4.585041},"geometry":{"type":"Point","coordinates":[12.473488,4.585041]}},{"type":"Feature","id":1159321303,"properties":{"name":"Togo","name:zh":"多哥","name:en":"Togo","wikidata":"Q945","country_code":"TG","population":8082366,"class":"country","rank":6,"minzoom":5,"label_x":1.058113,"label_y":8.80722},"geometry":{"type":"Point","coordinates":[1.058113,8.80722]}},{"type":"Feature","id":1159320793,"properties":{"name":"Ghana","name:zh":"加纳","name:en":"Ghana","wikidata":"Q117","country_code":"GH","population":30417856,"class":"country","rank":3,"minzoom":2.7,"label_x":-1.036941,"label_y":7.717639},"geometry":{"type":"Point","coordinates":[-1.036941,7.717639]}},{"type":"Feature","id":1159320507,"properties":{"name":"Côte d'Ivoire","name:zh":"科特迪瓦","name:en":"Ivory Coast","wikidata":"Q1008","country_code":"CI","population":25716544,"class":"country","rank":3,"minzoom":2.5,"label_x":-5.568618,"label_y":7.49139},"geometry":{"type":"Point","coordinates":[-5.568618,7.49139]}},{"type":"Feature","id":1159320795,"properties":{"name":"Guinea","name:zh":"几内亚","name:en":"Guinea","wikidata":"Q1006","country_code":"GN","population":12771246,"class":"country","rank":3,"minzoom":3,"label_x":-10.016402,"label_y":10.618516},"geometry":{"type":"Point","coordinates":[-10.016402,10.618516]}},{"type":"Feature","id":1159320799,"properties":{"name":"Guinea-Bissau","name:zh":"几内亚比绍","name:en":"Guinea-Bissau","wikidata":"Q1007","country_code":"GW","population":1920922,"class":"country","rank":6,"minzoom":5,"label_x":-14.52413,"label_y":12.163712},"geometry":{"type":"Point","coordinates":[-14.52413,12.163712]}},{"type":"Feature","id":1159321015,"properties":{"name":"Liberia","name:zh":"利比里亚","name:en":"Liberia","wikidata":"Q1014","country_code":"LR","population":4937374,"class":"country","rank":4,"minzoom":4,"label_x":-9.460379,"label_y":6.447177},"geometry":{"type":"Point","coordinates":[-9.460379,6.447177]}},{"type":"Feature","id":1159321251,"properties":{"name":"Sierra Leone","name:zh":"塞拉利昂","name:en":"Sierra Leone","wikidata":"Q1044","country_code":"SL","population":7813215,"class":"country","rank":4,"minzoom":4,"label_x":-11.763677,"label_y":8.617449},"geometry":{"type":"Point","coordinates":[-11.763677,8.617449]}},{"type":"Feature","id":1159320405,"properties":{"name":"Burkina Faso","name:zh":"布基纳法索","name:en":"Burkina Faso","wikidata":"Q965","country_code":"BF","population":20321378,"class":"country","rank":3,"minzoom":3,"label_x":-1.36388,"label_y":12.673048},"geometry":{"type":"Point","coordinates":[-1.36388,12.673048]}},{"type":"Feature","id":1159320463,"properties":{"name":"Central African Rep.","name:zh":"中非共和国","name:en":"Central African Republic","wikidata":"Q929","country_code":"CF","population":4745185,"class":"country","rank":4,"minzoom":4,"label_x":20.906897,"label_y":6.989681},"geometry":{"type":"Point","coordinates":[20.906897,6.989681]}},{"type":"Feature","id":1159320515,"properties":{"name":"Congo","name:zh":"刚果共和国","name:en":"Republic of the Congo","wikidata":"Q971","country_code":"CG","population":5380508,"class":"country","rank":4,"minzoom":4,"label_x":15.9005,"label_y":0.142331},"geometry":{"type":"Point","coordinates":[15.9005,0.142331]}},{"type":"Feature","id":1159320693,"properties":{"name":"Gabon","name:zh":"加蓬","name:en":"Gabon","wikidata":"Q1000","country_code":"GA","population":2172579,"class":"country","rank":4,"minzoom":3,"label_x":11.835939,"label_y":-0.437739},"geometry":{"type":"Point","coordinates":[11.835939,-0.437739]}},{"type":"Feature","id":1159320801,"properties":{"name":"Eq. Guinea","name:zh":"赤道几内亚","name:en":"Equatorial Guinea","wikidata":"Q983","country_code":"GQ","population":1355986,"class":"country","rank":4,"minzoom":4,"label_x":8.9902,"label_y":2.333},"geometry":{"type":"Point","coordinates":[8.9902,2.333]}},{"type":"Feature","id":1159321439,"properties":{"name":"Zambia","name:zh":"赞比亚","name:en":"Zambia","wikidata":"Q953","country_code":"ZM","population":17861030,"class":"country","rank":3,"minzoom":3,"label_x":26.395298,"label_y":-14.660804},"geometry":{"type":"Point","coordinates":[26.395298,-14.660804]}},{"type":"Feature","id":1159321081,"properties":{"name":"Malawi","name:zh":"马拉维","name:en":"Malawi","wikidata":"Q1020","country_code":"MW","population":18628747,"class":"country","rank":6,"minzoom":4,"label_x":33.608082,"label_y":-13.386737},"geometry":{"type":"Point","coordinates":[33.608082,-13.386737]}},{"type":"Feature","id":1159321073,"properties":{"name":"Mozambique","name:zh":"莫桑比克","name:en":"Mozambique","wikidata":"Q1029","country_code":"MZ","population":30366036,"class":"country","rank":3,"minzoom":3,"label_x":37.83789,"label_y":-13.94323},"geometry":{"type":"Point","coordinates":[37.83789,-13.94323]}},{"type":"Feature","id":1159321289,"properties":{"name":"eSwatini","name:zh":"斯威士兰","name:en":"Eswatini","wikidata":"Q1050","country_code":"SZ","population":1148130,"class":"country","rank":4,"minzoom":4,"label_x":31.467264,"label_y":-26.533676},"geometry":{"type":"Point","coordinates":[31.467264,-26.533676]}},{"type":"Feature","id":1159320323,"properties":{"name":"Angola","name:zh":"安哥拉","name:en":"Angola","wikidata":"Q916","country_code":"AO","population":31825295,"class":"country","rank":3,"minzoom":3,"label_x":17.984249,"label_y":-12.182762},"geometry":{"type":"Point","coordinates":[17.984249,-12.182762]}},{"type":"Feature","id":1159320387,"properties":{"name":"Burundi","name:zh":"布隆迪","name:en":"Burundi","wikidata":"Q967","country_code":"BI","population":11530580,"class":"country","rank":6,"minzoom":4,"label_x":29.917086,"label_y":-3.332836},"geometry":{"type":"Point","coordinates":[29.917086,-3.332836]}},{"type":"Feature","id":1159320895,"properties":{"name":"Israel","name:zh":"以色列","name:en":"Israel","wikidata":"Q801","country_code":"IL","population":9053300,"class":"country","rank":4,"minzoom":3,"label_x":34.847915,"label_y":30.911148},"geometry":{"type":"Point","coordinates":[34.847915,30.911148]}},{"type":"Feature","id":1159321013,"properties":{"name":"Lebanon","name:zh":"黎巴嫩","name:en":"Lebanon","wikidata":"Q822","country_code":"LB","population":6855713,"class":"country","rank":5,"minzoom":4,"label_x":35.992892,"label_y":34.133368},"geometry":{"type":"Point","coordinates":[35.992892,34.133368]}},{"type":"Feature","id":1159321051,"properties":{"name":"Madagascar","name:zh":"马达加斯加","name:en":"Madagascar","wikidata":"Q1019","country_code":"MG","population":26969307,"class":"country","rank":3,"minzoom":2.7,"label_x":46.704241,"label_y":-18.628288},"geometry":{"type":"Point","coordinates":[46.704241,-18.628288]}},{"type":"Feature","id":1159320899,"properties":{"name":"Palestine","name:zh":"巴勒斯坦","name:en":"Palestine","wikidata":"Q23792","country_code":"PS","population":4685306,"class":"country","rank":5,"minzoom":4.5,"label_x":35.291341,"label_y":32.047431},"geometry":{"type":"Point","coordinates":[35.291341,32.047431]}},{"type":"Feature","id":1159320797,"properties":{"name":"Gambia","name:zh":"冈比亚","name:en":"The Gambia","wikidata":"Q1005","country_code":"GM","population":2347706,"class":"country","rank":6,"minzoom":5,"label_x":-14.998318,"label_y":13.641721},"geometry":{"type":"Point","coordinates":[-14.998318,13.641721]}},{"type":"Feature","id":1159321327,"properties":{"name":"Tunisia","name:zh":"突尼斯","name:en":"Tunisia","wikidata":"Q948","country_code":"TN","population":11694719,"class":"country","rank":3,"minzoom":3,"label_x":9.007881,"label_y":33.687263},"geometry":{"type":"Point","coordinates":[9.007881,33.687263]}},{"type":"Feature","id":1159320565,"properties":{"name":"Algeria","name:zh":"阿尔及利亚","name:en":"Algeria","wikidata":"Q262","country_code":"DZ","population":43053054,"class":"country","rank":3,"minzoom":2.5,"label_x":2.808241,"label_y":27.397406},"geometry":{"type":"Point","coordinates":[2.808241,27.397406]}},{"type":"Feature","id":1159320935,"properties":{"name":"Jordan","name:zh":"约旦","name:en":"Jordan","wikidata":"Q810","country_code":"JO","population":10101694,"class":"country","rank":4,"minzoom":4,"label_x":36.375991,"label_y":30.805025},"geometry":{"type":"Point","coordinates":[36.375991,30.805025]}},{"type":"Feature","id":1159320329,"properties":{"name":"United Arab Emirates","name:zh":"阿拉伯联合酋长国","name:en":"United Arab Emirates","wikidata":"Q878","country_code":"AE","population":9770529,"class":"country","rank":4,"minzoom":4,"label_x":54.547256,"label_y":23.466285},"geometry":{"type":"Point","coordinates":[54.547256,23.466285]}},{"type":"Feature","id":1159321197,"properties":{"name":"Qatar","name:zh":"卡塔尔","name:en":"Qatar","wikidata":"Q846","country_code":"QA","population":2832067,"class":"country","rank":5,"minzoom":4,"label_x":51.143509,"label_y":25.237383},"geometry":{"type":"Point","coordinates":[51.143509,25.237383]}},{"type":"Feature","id":1159321009,"properties":{"name":"Kuwait","name:zh":"科威特","name:en":"Kuwait","wikidata":"Q817","country_code":"KW","population":4207083,"class":"country","rank":6,"minzoom":5,"label_x":47.313999,"label_y":29.413628},"geometry":{"type":"Point","coordinates":[47.313999,29.413628]}},{"type":"Feature","id":1159320887,"properties":{"name":"Iraq","name:zh":"伊拉克","name:en":"Iraq","wikidata":"Q796","country_code":"IQ","population":39309783,"class":"country","rank":3,"minzoom":3,"label_x":43.26181,"label_y":33.09403},"geometry":{"type":"Point","coordinates":[43.26181,33.09403]}},{"type":"Feature","id":1159321151,"properties":{"name":"Oman","name:zh":"阿曼","name:en":"Oman","wikidata":"Q842","country_code":"OM","population":4974986,"class":"country","rank":4,"minzoom":4,"label_x":57.336553,"label_y":22.120427},"geometry":{"type":"Point","coordinates":[57.336553,22.120427]}},{"type":"Feature","id":1159321421,"properties":{"name":"Vanuatu","name:zh":"瓦努阿图","name:en":"Vanuatu","wikidata":"Q686","country_code":"VU","population":299882,"class":"country","rank":4,"minzoom":4,"label_x":166.908762,"label_y":-15.37153},"geometry":{"type":"Point","coordinates":[166.908762,-15.37153]}},{"type":"Feature","id":1159320979,"properties":{"name":"Cambodia","name:zh":"柬埔寨","name:en":"Cambodia","wikidata":"Q424","country_code":"KH","population":16486542,"class":"country","rank":3,"minzoom":3,"label_x":104.50487,"label_y":12.647584},"geometry":{"type":"Point","coordinates":[104.50487,12.647584]}},{"type":"Feature","id":1159321305,"properties":{"name":"Thailand","name:zh":"泰国","name:en":"Thailand","wikidata":"Q869","country_code":"TH","population":69625582,"class":"country","rank":3,"minzoom":2.7,"label_x":101.073198,"label_y":15.45974},"geometry":{"type":"Point","coordinates":[101.073198,15.45974]}},{"type":"Feature","id":1159321011,"properties":{"name":"Laos","name:zh":"老挝","name:en":"Laos","wikidata":"Q819","country_code":"LA","population":7169455,"class":"country","rank":4,"minzoom":4,"label_x":102.533912,"label_y":19.431821},"geometry":{"type":"Point","coordinates":[102.533912,19.431821]}},{"type":"Feature","id":1159321067,"properties":{"name":"Myanmar","name:zh":"缅甸","name:en":"Myanmar","wikidata":"Q836","country_code":"MM","population":54045420,"class":"country","rank":3,"minzoom":3,"label_x":95.804497,"label_y":21.573855},"geometry":{"type":"Point","coordinates":[95.804497,21.573855]}},{"type":"Feature","id":1159321417,"properties":{"name":"Vietnam","name:zh":"越南","name:en":"Vietnam","wikidata":"Q881","country_code":"VN","population":96462106,"class":"country","rank":2,"minzoom":2,"label_x":105.387292,"label_y":21.715416},"geometry":{"type":"Point","coordinates":[105.387292,21.715416]}},{"type":"Feature","id":1159321181,"properties":{"name":"North Korea","name:zh":"朝鲜民主主义人民共和国","name:en":"North Korea","wikidata":"Q423","country_code":"KP","population":25666161,"class":"country","rank":3,"minzoom":3,"label_x":126.444516,"label_y":39.885252},"geometry":{"type":"Point","coordinates":[126.444516,39.885252]}},{"type":"Feature","id":1159320985,"properties":{"name":"South Korea","name:zh":"大韩民国","name:en":"South Korea","wikidata":"Q884","country_code":"KR","population":51709098,"class":"country","rank":2,"minzoom":2.5,"label_x":128.129504,"label_y":36.384924},"geometry":{"type":"Point","coordinates":[128.129504,36.384924]}},{"type":"Feature","id":1159321071,"properties":{"name":"Mongolia","name:zh":"蒙古国","name:en":"Mongolia","wikidata":"Q711","country_code":"MN","population":3225167,"class":"country","rank":3,"minzoom":3,"label_x":104.150405,"label_y":45.997488},"geometry":{"type":"Point","coordinates":[104.150405,45.997488]}},{"type":"Feature","id":1159320847,"properties":{"name":"India","name:zh":"印度","name:en":"India","wikidata":"Q668","country_code":"IN","population":1366417754,"class":"country","rank":2,"minzoom":1.7,"label_x":79.358105,"label_y":22.686852},"geometry":{"type":"Point","coordinates":[79.358105,22.686852]}},{"type":"Feature","id":1159320407,"properties":{"name":"Bangladesh","name:zh":"孟加拉国","name:en":"Bangladesh","wikidata":"Q902","country_code":"BD","population":163046161,"class":"country","rank":3,"minzoom":3,"label_x":89.684963,"label_y":24.214956},"geometry":{"type":"Point","coordinates":[89.684963,24.214956]}},{"type":"Feature","id":1159320453,"properties":{"name":"Bhutan","name:zh":"不丹","name:en":"Bhutan","wikidata":"Q917","country_code":"BT","population":763092,"class":"country","rank":5,"minzoom":4,"label_x":90.040294,"label_y":27.536685},"geometry":{"type":"Point","coordinates":[90.040294,27.536685]}},{"type":"Feature","id":1159321121,"properties":{"name":"Nepal","name:zh":"尼泊尔","name:en":"Nepal","wikidata":"Q837","country_code":"NP","population":28608710,"class":"country","rank":3,"minzoom":3,"label_x":83.639914,"label_y":28.297925},"geometry":{"type":"Point","coordinates":[83.639914,28.297925]}},{"type":"Feature","id":1159321153,"properties":{"name":"Pakistan","name:zh":"巴基斯坦","name:en":"Pakistan","wikidata":"Q843","country_code":"PK","population":216565318,"class":"country","rank":2,"minzoom":2.7,"label_x":68.545632,"label_y":29.328389},"geometry":{"type":"Point","coordinates":[68.545632,29.328389]}},{"type":"Feature","id":1159320319,"properties":{"name":"Afghanistan","name:zh":"阿富汗","name:en":"Afghanistan","wikidata":"Q889","country_code":"AF","population":38041754,"class":"country","rank":3,"minzoom":3,"label_x":66.496586,"label_y":34.164262},"geometry":{"type":"Point","coordinates":[66.496586,34.164262]}},{"type":"Feature","id":1159321307,"properties":{"name":"Tajikistan","name:zh":"塔吉克斯坦","name:en":"Tajikistan","wikidata":"Q863","country_code":"TJ","population":9321018,"class":"country","rank":4,"minzoom":4,"label_x":72.587276,"label_y":38.199835},"geometry":{"type":"Point","coordinates":[72.587276,38.199835]}},{"type":"Feature","id":1159320977,"properties":{"name":"Kyrgyzstan","name:zh":"吉尔吉斯斯坦","name:en":"Kyrgyzstan","wikidata":"Q813","country_code":"KG","population":6456900,"class":"country","rank":4,"minzoom":3,"label_x":74.532637,"label_y":41.66854},"geometry":{"type":"Point","coordinates":[74.532637,41.66854]}},{"type":"Feature","id":1159321309,"properties":{"name":"Turkmenistan","name:zh":"土库曼斯坦","name:en":"Turkmenistan","wikidata":"Q874","country_code":"TM","population":5942089,"class":"country","rank":4,"minzoom":3,"label_x":58.676647,"label_y":39.855246},"geometry":{"type":"Point","coordinates":[58.676647,39.855246]}},{"type":"Feature","id":1159320881,"properties":{"name":"Iran","name:zh":"伊朗","name:en":"Iran","wikidata":"Q794","country_code":"IR","population":82913906,"class":"country","rank":2,"minzoom":2.5,"label_x":54.931495,"label_y":32.166225},"geometry":{"type":"Point","coordinates":[54.931495,32.166225]}},{"type":"Feature","id":1159321295,"properties":{"name":"Syria","name:zh":"叙利亚","name:en":"Syria","wikidata":"Q858","country_code":"SY","population":17070135,"class":"country","rank":3,"minzoom":3,"label_x":38.277783,"label_y":35.006636},"geometry":{"type":"Point","coordinates":[38.277783,35.006636]}},{"type":"Feature","id":1159320333,"properties":{"name":"Armenia","name:zh":"亚美尼亚","name:en":"Armenia","wikidata":"Q399","country_code":"AM","population":2957731,"class":"country","rank":6,"minzoom":5,"label_x":44.800564,"label_y":40.459077},"geometry":{"type":"Point","coordinates":[44.800564,40.459077]}},{"type":"Feature","id":1159321287,"properties":{"name":"Sweden","name:zh":"瑞典","name:en":"Sweden","wikidata":"Q34","country_code":"SE","population":10285453,"class":"country","rank":3,"minzoom":2,"label_x":19.01705,"label_y":65.85918},"geometry":{"type":"Point","coordinates":[19.01705,65.85918]}},{"type":"Feature","id":1159320427,"properties":{"name":"Belarus","name:zh":"白俄罗斯","name:en":"Belarus","wikidata":"Q184","country_code":"BY","population":9466856,"class":"country","rank":4,"minzoom":3,"label_x":28.417701,"label_y":53.821888},"geometry":{"type":"Point","coordinates":[28.417701,53.821888]}},{"type":"Feature","id":1159321345,"properties":{"name":"Ukraine","name:zh":"乌克兰","name:en":"Ukraine","wikidata":"Q212","country_code":"UA","population":44385155,"class":"country","rank":3,"minzoom":2.7,"label_x":32.140865,"label_y":49.724739},"geometry":{"type":"Point","coordinates":[32.140865,49.724739]}},{"type":"Feature","id":1159321179,"properties":{"name":"Poland","name:zh":"波兰","name:en":"Poland","wikidata":"Q36","country_code":"PL","population":37970874,"class":"country","rank":3,"minzoom":2.5,"label_x":19.490468,"label_y":51.990316},"geometry":{"type":"Point","coordinates":[19.490468,51.990316]}},{"type":"Feature","id":1159320379,"properties":{"name":"Austria","name:zh":"奥地利","name:en":"Austria","wikidata":"Q40","country_code":"AT","population":8877067,"class":"country","rank":4,"minzoom":3,"label_x":14.130515,"label_y":47.518859},"geometry":{"type":"Point","coordinates":[14.130515,47.518859]}},{"type":"Feature","id":1159320841,"properties":{"name":"Hungary","name:zh":"匈牙利","name:en":"Hungary","wikidata":"Q28","country_code":"HU","population":9769949,"class":"country","rank":5,"minzoom":4,"label_x":19.447867,"label_y":47.086841},"geometry":{"type":"Point","coordinates":[19.447867,47.086841]}},{"type":"Feature","id":1159321045,"properties":{"name":"Moldova","name:zh":"摩尔多瓦","name:en":"Moldova","wikidata":"Q217","country_code":"MD","population":2657637,"class":"country","rank":6,"minzoom":5,"label_x":28.487904,"label_y":47.434999},"geometry":{"type":"Point","coordinates":[28.487904,47.434999]}},{"type":"Feature","id":1159321199,"properties":{"name":"Romania","name:zh":"罗马尼亚","name:en":"Romania","wikidata":"Q218","country_code":"RO","population":19356544,"class":"country","rank":3,"minzoom":3,"label_x":24.972624,"label_y":45.733237},"geometry":{"type":"Point","coordinates":[24.972624,45.733237]}},{"type":"Feature","id":1159321029,"properties":{"name":"Lithuania","name:zh":"立陶宛","name:en":"Lithuania","wikidata":"Q37","country_code":"LT","population":2786844,"class":"country","rank":5,"minzoom":4,"label_x":24.089932,"label_y":55.103703},"geometry":{"type":"Point","coordinates":[24.089932,55.103703]}},{"type":"Feature","id":1159321033,"properties":{"name":"Latvia","name:zh":"拉脱维亚","name:en":"Latvia","wikidata":"Q211","country_code":"LV","population":1912789,"class":"country","rank":5,"minzoom":4,"label_x":25.458723,"label_y":57.066872},"geometry":{"type":"Point","coordinates":[25.458723,57.066872]}},{"type":"Feature","id":1159320615,"properties":{"name":"Estonia","name:zh":"爱沙尼亚","name:en":"Estonia","wikidata":"Q191","country_code":"EE","population":1326590,"class":"country","rank":6,"minzoom":3,"label_x":25.867126,"label_y":58.724865},"geometry":{"type":"Point","coordinates":[25.867126,58.724865]}},{"type":"Feature","id":1159320539,"properties":{"name":"Germany","name:zh":"德国","name:en":"Germany","wikidata":"Q183","country_code":"DE","population":83132799,"class":"country","rank":2,"minzoom":1.7,"label_x":9.678348,"label_y":50.961733},"geometry":{"type":"Point","coordinates":[9.678348,50.961733]}},{"type":"Feature","id":1159320409,"properties":{"name":"Bulgaria","name:zh":"保加利亚","name:en":"Bulgaria","wikidata":"Q219","country_code":"BG","population":6975761,"class":"country","rank":4,"minzoom":4,"label_x":25.15709,"label_y":42.508785},"geometry":{"type":"Point","coordinates":[25.15709,42.508785]}},{"type":"Feature","id":1159320811,"properties":{"name":"Greece","name:zh":"希腊","name:en":"Greece","wikidata":"Q41","country_code":"GR","population":10716322,"class":"country","rank":3,"minzoom":2.7,"label_x":21.72568,"label_y":39.492763},"geometry":{"type":"Point","coordinates":[21.72568,39.492763]}},{"type":"Feature","id":1159321331,"properties":{"name":"Turkey","name:zh":"土耳其","name:en":"Turkey","wikidata":"Q43","country_code":"TR","population":83429615,"class":"country","rank":2,"minzoom":2,"label_x":34.508268,"label_y":39.345388},"geometry":{"type":"Point","coordinates":[34.508268,39.345388]}},{"type":"Feature","id":1159320325,"properties":{"name":"Albania","name:zh":"阿尔巴尼亚","name:en":"Albania","wikidata":"Q222","country_code":"AL","population":2854191,"class":"country","rank":6,"minzoom":5,"label_x":20.11384,"label_y":40.654855},"geometry":{"type":"Point","coordinates":[20.11384,40.654855]}},{"type":"Feature","id":1159320833,"properties":{"name":"Croatia","name:zh":"克罗地亚","name:en":"Croatia","wikidata":"Q224","country_code":"HR","population":4067500,"class":"country","rank":6,"minzoom":4,"label_x":16.37241,"label_y":45.805799},"geometry":{"type":"Point","coordinates":[16.37241,45.805799]}},{"type":"Feature","id":1159320491,"properties":{"name":"Switzerland","name:zh":"瑞士","name:en":"Switzerland","wikidata":"Q39","country_code":"CH","population":8574832,"class":"country","rank":4,"minzoom":4,"label_x":7.463965,"label_y":46.719114},"geometry":{"type":"Point","coordinates":[7.463965,46.719114]}},{"type":"Feature","id":1159321031,"properties":{"name":"Luxembourg","name:zh":"卢森堡","name:en":"Luxembourg","wikidata":"Q32","country_code":"LU","population":619896,"class":"country","rank":6,"minzoom":5.7,"label_x":6.07762,"label_y":49.733732},"geometry":{"type":"Point","coordinates":[6.07762,49.733732]}},{"type":"Feature","id":1159320389,"properties":{"name":"Belgium","name:zh":"比利时","name:en":"Belgium","wikidata":"Q31","country_code":"BE","population":11484055,"class":"country","rank":2,"minzoom":4,"label_x":4.800448,"label_y":50.785392},"geometry":{"type":"Point","coordinates":[4.800448,50.785392]}},{"type":"Feature","id":1159321101,"properties":{"name":"Netherlands","name:zh":"荷兰","name:en":"Netherlands","wikidata":"Q55","country_code":"NL","population":17332850,"class":"country","rank":5,"minzoom":4,"label_x":5.61144,"label_y":52.422211},"geometry":{"type":"Point","coordinates":[5.61144,52.422211]}},{"type":"Feature","id":1159321187,"properties":{"name":"Portugal","name:zh":"葡萄牙","name:en":"Portugal","wikidata":"Q45","country_code":"PT","population":10269417,"class":"country","rank":2,"minzoom":3,"label_x":-8.271754,"label_y":39.606675},"geometry":{"type":"Point","coordinates":[-8.271754,39.606675]}},{"type":"Feature","id":1159320587,"properties":{"name":"Spain","name:zh":"西班牙","name:en":"Spain","wikidata":"Q29","country_code":"ES","population":47076781,"class":"country","rank":2,"minzoom":2,"label_x":-3.464718,"label_y":40.090953},"geometry":{"type":"Point","coordinates":[-3.464718,40.090953]}},{"type":"Feature","id":1159320877,"properties":{"name":"Ireland","name:zh":"爱尔兰","name:en":"Ireland","wikidata":"Q27","country_code":"IE","population":4941444,"class":"country","rank":3,"minzoom":3,"label_x":-7.798588,"label_y":53.078726},"geometry":{"type":"Point","coordinates":[-7.798588,53.078726]}},{"type":"Feature","id":1159320641,"properties":{"name":"New Caledonia","name:zh":"新喀里多尼亚","name:en":"New Caledonia","wikidata":"Q33788","country_code":"NC","population":287800,"class":"country","rank":3,"minzoom":4.6,"label_x":165.084004,"label_y":-21.064697},"geometry":{"type":"Point","coordinates":[165.084004,-21.064697]}},{"type":"Feature","id":1159321249,"properties":{"name":"Solomon Is.","name:zh":"所罗门群岛","name:en":"Solomon Islands","wikidata":"Q685","country_code":"SB","population":669823,"class":"country","rank":3,"minzoom":3,"label_x":159.170468,"label_y":-8.029548},"geometry":{"type":"Point","coordinates":[159.170468,-8.029548]}},{"type":"Feature","id":1159321135,"properties":{"name":"New Zealand","name:zh":"新西兰","name:en":"New Zealand","wikidata":"Q664","country_code":"NZ","population":4917000,"class":"country","rank":2,"minzoom":2,"label_x":172.787,"label_y":-39.759},"geometry":{"type":"Point","coordinates":[172.787,-39.759]}},{"type":"Feature","id":1159320355,"properties":{"name":"Australia","name:zh":"澳大利亚","name:en":"Australia","wikidata":"Q408","country_code":"AU","population":25364307,"class":"country","rank":2,"minzoom":1.7,"label_x":134.04972,"label_y":-24.129522},"geometry":{"type":"Point","coordinates":[134.04972,-24.129522]}},{"type":"Feature","id":1159321025,"properties":{"name":"Sri Lanka","name:zh":"斯里兰卡","name:en":"Sri Lanka","wikidata":"Q854","country_code":"LK","population":21803000,"class":"country","rank":3,"minzoom":3,"label_x":80.704823,"label_y":7.581097},"geometry":{"type":"Point","coordinates":[80.704823,7.581097]}},{"type":"Feature","id":1159320471,"properties":{"name":"China","name:zh":"中华人民共和国","name:en":"People's Republic of China","wikidata":"Q148","country_code":"CN","population":1397715000,"class":"country","rank":2,"minzoom":1.7,"label_x":106.337289,"label_y":32.498178},"geometry":{"type":"Point","coordinates":[106.337289,32.498178]}},{"type":"Feature","id":1159321335,"properties":{"name":"Taiwan","name:zh":"中华民国","name:en":"Taiwan","wikidata":"Q865","country_code":"CN-TW","population":23568378,"class":"country","rank":3,"minzoom":4.5,"label_x":120.868204,"label_y":23.652408},"geometry":{"type":"Point","coordinates":[120.868204,23.652408]}},{"type":"Feature","id":1159320919,"properties":{"name":"Italy","name:zh":"意大利","name:en":"Italy","wikidata":"Q38","country_code":"IT","population":60297396,"class":"country","rank":2,"minzoom":2,"label_x":11.076907,"label_y":44.732482},"geometry":{"type":"Point","coordinates":[11.076907,44.732482]}},{"type":"Feature","id":1159320547,"properties":{"name":"Denmark","name:zh":"丹麦","name:en":"Denmark","wikidata":"Q35","country_code":"DK","population":5818553,"class":"country","rank":4,"minzoom":3,"label_x":9.018163,"label_y":55.966965},"geometry":{"type":"Point","coordinates":[9.018163,55.966965]}},{"type":"Feature","id":1159320713,"properties":{"name":"United Kingdom","name:zh":"英国","name:en":"United Kingdom","wikidata":"Q145","country_code":"GB","population":66834405,"class":"country","rank":2,"minzoom":1.7,"label_x":-2.116346,"label_y":54.402739},"geometry":{"type":"Point","coordinates":[-2.116346,54.402739]}},{"type":"Feature","id":1159320917,"properties":{"name":"Iceland","name:zh":"冰岛","name:en":"Iceland","wikidata":"Q189","country_code":"IS","population":361313,"class":"country","rank":3,"minzoom":2,"label_x":-18.673711,"label_y":64.779286},"geometry":{"type":"Point","coordinates":[-18.673711,64.779286]}},{"type":"Feature","id":1159320381,"properties":{"name":"Azerbaijan","name:zh":"阿塞拜疆","name:en":"Azerbaijan","wikidata":"Q227","country_code":"AZ","population":10023318,"class":"country","rank":5,"minzoom":4,"label_x":47.210994,"label_y":40.402387},"geometry":{"type":"Point","coordinates":[47.210994,40.402387]}},{"type":"Feature","id":1159320779,"properties":{"name":"Georgia","name:zh":"格鲁吉亚","name:en":"Georgia","wikidata":"Q230","country_code":"GE","population":3720382,"class":"country","rank":5,"minzoom":4,"label_x":43.735724,"label_y":41.870087},"geometry":{"type":"Point","coordinates":[43.735724,41.870087]}},{"type":"Feature","id":1159321169,"properties":{"name":"Philippines","name:zh":"菲律宾","name:en":"Philippines","wikidata":"Q928","country_code":"PH","population":108116615,"class":"country","rank":2,"minzoom":2.5,"label_x":122.465,"label_y":11.198},"geometry":{"type":"Point","coordinates":[122.465,11.198]}},{"type":"Feature","id":1159321083,"properties":{"name":"Malaysia","name:zh":"马来西亚","name:en":"Malaysia","wikidata":"Q833","country_code":"MY","population":31949777,"class":"country","rank":3,"minzoom":3,"label_x":113.83708,"label_y":2.528667},"geometry":{"type":"Point","coordinates":[113.83708,2.528667]}},{"type":"Feature","id":1159320451,"properties":{"name":"Brunei","name:zh":"文莱","name:en":"Brunei","wikidata":"Q921","country_code":"BN","population":433285,"class":"country","rank":6,"minzoom":4,"label_x":114.551943,"label_y":4.448298},"geometry":{"type":"Point","coordinates":[114.551943,4.448298]}},{"type":"Feature","id":1159321285,"properties":{"name":"Slovenia","name:zh":"斯洛文尼亚","name:en":"Slovenia","wikidata":"Q215","country_code":"SI","population":2087946,"class":"country","rank":6,"minzoom":5,"label_x":14.915312,"label_y":46.06076},"geometry":{"type":"Point","coordinates":[14.915312,46.06076]}},{"type":"Feature","id":1159320623,"properties":{"name":"Finland","name:zh":"芬兰","name:en":"Finland","wikidata":"Q33","country_code":"FI","population":5520314,"class":"country","rank":3,"minzoom":3,"label_x":27.276449,"label_y":63.252361},"geometry":{"type":"Point","coordinates":[27.276449,63.252361]}},{"type":"Feature","id":1159321283,"properties":{"name":"Slovakia","name:zh":"斯洛伐克","name:en":"Slovakia","wikidata":"Q214","country_code":"SK","population":5454073,"class":"country","rank":6,"minzoom":4,"label_x":19.049868,"label_y":48.734044},"geometry":{"type":"Point","coordinates":[19.049868,48.734044]}},{"type":"Feature","id":1159320535,"properties":{"name":"Czechia","name:zh":"捷克","name:en":"Czech Republic","wikidata":"Q213","country_code":"CZ","population":10669709,"class":"country","rank":5,"minzoom":4,"label_x":15.377555,"label_y":49.882364},"geometry":{"type":"Point","coordinates":[15.377555,49.882364]}},{"type":"Feature","id":1159320581,"properties":{"name":"Eritrea","name:zh":"厄立特里亚","name:en":"Eritrea","wikidata":"Q986","country_code":"ER","population":6081196,"class":"country","rank":4,"minzoom":4,"label_x":38.285566,"label_y":15.787401},"geometry":{"type":"Point","coordinates":[38.285566,15.787401]}},{"type":"Feature","id":1159320937,"properties":{"name":"Japan","name:zh":"日本","name:en":"Japan","wikidata":"Q17","country_code":"JP","population":126264931,"class":"country","rank":2,"minzoom":1.7,"label_x":138.44217,"label_y":36.142538},"geometry":{"type":"Point","coordinates":[138.44217,36.142538]}},{"type":"Feature","id":1159321195,"properties":{"name":"Paraguay","name:zh":"巴拉圭","name:en":"Paraguay","wikidata":"Q733","country_code":"PY","population":7044636,"class":"country","rank":4,"minzoom":3,"label_x":-60.146394,"label_y":-21.674509},"geometry":{"type":"Point","coordinates":[-60.146394,-21.674509]}},{"type":"Feature","id":1159321425,"properties":{"name":"Yemen","name:zh":"也门","name:en":"Yemen","wikidata":"Q805","country_code":"YE","population":29161922,"class":"country","rank":3,"minzoom":3,"label_x":45.874383,"label_y":15.328226},"geometry":{"type":"Point","coordinates":[45.874383,15.328226]}},{"type":"Feature","id":1159321225,"properties":{"name":"Saudi Arabia","name:zh":"沙特阿拉伯","name:en":"Saudi Arabia","wikidata":"Q851","country_code":"SA","population":34268528,"class":"country","rank":2,"minzoom":1.7,"label_x":44.6996,"label_y":23.806908},"geometry":{"type":"Point","coordinates":[44.6996,23.806908]}},{"type":"Feature","id":1159320335,"properties":{"name":"Antarctica","name:zh":"南极洲","name:en":"Antarctica","wikidata":"Q51","country_code":"AQ","population":4490,"class":"country","rank":4,"minzoom":4,"label_x":35.885455,"label_y":-79.843222},"geometry":{"type":"Point","coordinates":[35.885455,-79.843222]}},{"type":"Feature","id":1159320531,"properties":{"name":"N. Cyprus","name:zh":"北塞浦路斯土耳其共和国","name:en":"Turkish Republic of Northern Cyprus","wikidata":"Q23681","country_code":"-99","population":326000,"class":"country","rank":6,"minzoom":6,"label_x":33.692434,"label_y":35.216071},"geometry":{"type":"Point","coordinates":[33.692434,35.216071]}},{"type":"Feature","id":1159320533,"properties":{"name":"Cyprus","name:zh":"塞浦路斯","name:en":"Cyprus","wikidata":"Q229","country_code":"CY","population":1198575,"class":"country","rank":5,"minzoom":4.5,"label_x":33.084182,"label_y":34.913329},"geometry":{"type":"Point","coordinates":[33.084182,34.913329]}},{"type":"Feature","id":1159321035,"properties":{"name":"Morocco","name:zh":"摩洛哥","name:en":"Morocco","wikidata":"Q1028","country_code":"MA","population":36471769,"class":"country","rank":3,"minzoom":2.7,"label_x":-7.187296,"label_y":31.650723},"geometry":{"type":"Point","coordinates":[-7.187296,31.650723]}},{"type":"Feature","id":1159320575,"properties":{"name":"Egypt","name:zh":"埃及","name:en":"Egypt","wikidata":"Q79","country_code":"EG","population":100388073,"class":"country","rank":2,"minzoom":1.7,"label_x":29.445837,"label_y":26.186173},"geometry":{"type":"Point","coordinates":[29.445837,26.186173]}},{"type":"Feature","id":1159321017,"properties":{"name":"Libya","name:zh":"利比亚","name:en":"Libya","wikidata":"Q1016","country_code":"LY","population":6777452,"class":"country","rank":3,"minzoom":3,"label_x":18.011015,"label_y":26.638944},"geometry":{"type":"Point","coordinates":[18.011015,26.638944]}},{"type":"Feature","id":1159320617,"properties":{"name":"Ethiopia","name:zh":"埃塞俄比亚","name:en":"Ethiopia","wikidata":"Q115","country_code":"ET","population":112078730,"class":"country","rank":2,"minzoom":2,"label_x":39.0886,"label_y":8.032795},"geometry":{"type":"Point","coordinates":[39.0886,8.032795]}},{"type":"Feature","id":1159320541,"properties":{"name":"Djibouti","name:zh":"吉布提","name:en":"Djibouti","wikidata":"Q977","country_code":"DJ","population":973560,"class":"country","rank":5,"minzoom":4,"label_x":42.498825,"label_y":11.976343},"geometry":{"type":"Point","coordinates":[42.498825,11.976343]}},{"type":"Feature","id":1159321259,"properties":{"name":"Somaliland","name:zh":"索马里兰","name:en":"Somaliland","wikidata":"Q34754","country_code":"-99","population":5096159,"class":"country","rank":5,"minzoom":4.5,"label_x":46.731595,"label_y":9.443889},"geometry":{"type":"Point","coordinates":[46.731595,9.443889]}},{"type":"Feature","id":1159321343,"properties":{"name":"Uganda","name:zh":"乌干达","name:en":"Uganda","wikidata":"Q1036","country_code":"UG","population":44269594,"class":"country","rank":3,"minzoom":3,"label_x":32.948555,"label_y":1.972589},"geometry":{"type":"Point","coordinates":[32.948555,1.972589]}},{"type":"Feature","id":1159321219,"properties":{"name":"Rwanda","name:zh":"卢旺达","name:en":"Rwanda","wikidata":"Q1037","country_code":"RW","population":12626950,"class":"country","rank":3,"minzoom":3,"label_x":30.103894,"label_y":-1.897196},"geometry":{"type":"Point","coordinates":[30.103894,-1.897196]}},{"type":"Feature","id":1159320417,"properties":{"name":"Bosnia and Herz.","name:zh":"波斯尼亚和黑塞哥维那","name:en":"Bosnia and Herzegovina","wikidata":"Q225","country_code":"BA","population":3301000,"class":"country","rank":5,"minzoom":4.5,"label_x":18.06841,"label_y":44.091051},"geometry":{"type":"Point","coordinates":[18.06841,44.091051]}},{"type":"Feature","id":1159321061,"properties":{"name":"North Macedonia","name:zh":"北马其顿","name:en":"North Macedonia","wikidata":"Q221","country_code":"MK","population":2083459,"class":"country","rank":6,"minzoom":5,"label_x":21.555839,"label_y":41.558223},"geometry":{"type":"Point","coordinates":[21.555839,41.558223]}},{"type":"Feature","id":1159321267,"properties":{"name":"Serbia","name:zh":"塞尔维亚","name:en":"Serbia","wikidata":"Q403","country_code":"RS","population":6944975,"class":"country","rank":5,"minzoom":4,"label_x":20.787989,"label_y":44.189919},"geometry":{"type":"Point","coordinates":[20.787989,44.189919]}},{"type":"Feature","id":1159321069,"properties":{"name":"Montenegro","name:zh":"黑山","name:en":"Montenegro","wikidata":"Q236","country_code":"ME","population":622137,"class":"country","rank":6,"minzoom":5,"label_x":19.143727,"label_y":42.803101},"geometry":{"type":"Point","coordinates":[19.143727,42.803101]}},{"type":"Feature","id":1159321007,"properties":{"name":"Kosovo","name:zh":"科索沃","name:en":"Kosovo","wikidata":"Q1246","country_code":"XK","population":1794248,"class":"country","rank":6,"minzoom":5,"label_x":20.860719,"label_y":42.593587},"geometry":{"type":"Point","coordinates":[20.860719,42.593587]}},{"type":"Feature","id":1159321321,"properties":{"name":"Trinidad and Tobago","name:zh":"特立尼达和多巴哥","name:en":"Trinidad and Tobago","wikidata":"Q754","country_code":"TT","population":1394973,"class":"country","rank":5,"minzoom":4.5,"label_x":-60.9184,"label_y":10.9989},"geometry":{"type":"Point","coordinates":[-60.9184,10.9989]}},{"type":"Feature","id":1159321235,"properties":{"name":"S. Sudan","name:zh":"南苏丹","name:en":"South Sudan","wikidata":"Q958","country_code":"SS","population":11062113,"class":"country","rank":3,"minzoom":3,"label_x":30.390151,"label_y":7.230477},"geometry":{"type":"Point","coordinates":[30.390151,7.230477]}}]}